[{"OBJECT_NAME":"STARLINK-4026","OBJECT_ID":"2022-052C","EPOCH":"2026-03-09T20:35:49.167744","MEAN_MOTION":15.08837616,"ECCENTRICITY":0.00013388,"INCLINATION":53.2155,"RA_OF_ASC_NODE":278.3676,"ARG_OF_PERICENTER":87.3603,"MEAN_ANOMALY":272.7542,"EPHEMERIS_TYPE":0,"CLASSIFICATION_TYPE":"U","NORAD_CAT_ID":52600,"ELEMENT_SET_NO":999,"REV_AT_EPOCH":21168,"BSTAR":-9.287864e-6,"MEAN_MOTION_DOT":-4.36e-6,"MEAN_MOTION_DDOT":0},{"OBJECT_NAME":"COSMOS 2251 DEB","OBJECT_ID":"1993-036KP","EPOCH":"2026-03-09T11:34:45.143616","MEAN_MOTION":14.98033379,"ECCENTRICITY":0.0061647,"INCLINATION":73.9497,"RA_OF_ASC_NODE":73.2248,"ARG_OF_PERICENTER":244.1722,"MEAN_ANOMALY":240.8942,"EPHEMERIS_TYPE":0,"CLASSIFICATION_TYPE":"U","NORAD_CAT_ID":34118,"ELEMENT_SET_NO":999,"REV_AT_EPOCH":90473,"BSTAR":0.001884933,"MEAN_MOTION_DOT":0.00023205,"MEAN_MOTION_DDOT":0}]
